start=new Date('2022-07-25T00:00:00.000Z').valueOf();
sats=[{"OBJECT_ID":"2022-017AV","CLASSIFICATION_TYPE":"U","ELEMENT_SET_NO":"999","RA_OF_ASC_NODE":"161.7726","EPHEMERIS_TYPE":"0","DECAY_DATE":null,"ARG_OF_PERICENTER":"55.0803","REF_FRAME":"TEME","RCS_SIZE":"LARGE","MEAN_ANOMALY":"108.4825","MEAN_MOTION_DOT":"-0.00001969","COUNTRY_CODE":"US","APOAPSIS":"541.357","OBJECT_NAME":"STARLINK-3569","ECCENTRICITY":"0.00023120","NORAD_CAT_ID":"51811","REV_AT_EPOCH":"130","SITE":"AFWTR","CENTER_NAME":"EARTH","OBJECT_TYPE":"PAYLOAD","MEAN_ELEMENT_THEORY":"SGP4","MEAN_MOTION_DDOT":"0.0000000000000","FILE":"3521124","TIME_SYSTEM":"UTC","INCLINATION":"53.2175","MEAN_MOTION":"15.08836046","PERIOD":"95.438","TLE_LINE2":"2 51811  53.2175 161.7726 0002312  55.0803 108.4825 15.08836046  1303","PERIAPSIS":"538.158","SEMIMAJOR_AXIS":"6917.892","TLE_LINE1":"1 51811U 22017AV  22205.91667824 -.00001969  00000-0 -10566-3 0  9990","GP_ID":"208799946","LAUNCH_DATE":"2022-02-25","BSTAR":"-0.00010566000000","EPOCH":"2022-07-24T22:00:00.999936"},{"ECCENTRICITY":"0.00014200","NORAD_CAT_ID":"51812","APOAPSIS":"540.719","COUNTRY_CODE":"US","OBJECT_NAME":"STARLINK-3610","ARG_OF_PERICENTER":"84.6604","DECAY_DATE":null,"MEAN_ANOMALY":"33.8694","MEAN_MOTION_DOT":"-0.00019663","REF_FRAME":"TEME","RCS_SIZE":"LARGE","CLASSIFICATION_TYPE":"U","ELEMENT_SET_NO":"999","OBJECT_ID":"2022-017AW","EPHEMERIS_TYPE":"0","RA_OF_ASC_NODE":"151.7534","GP_ID":"208801197","SEMIMAJOR_AXIS":"6917.872","TLE_LINE1":"1 51812U 22017AW  22205.91667824 -.00019663  00000-0 -12206-2 0  9993","EPOCH":"2022-07-24T22:00:00.999936","LAUNCH_DATE":"2022-02-25","BSTAR":"-0.00122060000000","PERIOD":"95.437","TLE_LINE2":"2 51812  53.2158 151.7534 0001420  84.6604  33.8694 15.08842725  1303","MEAN_MOTION":"15.08842725","INCLINATION":"53.2158","PERIAPSIS":"538.755","FILE":"3521124","MEAN_MOTION_DDOT":"0.0000000000000","TIME_SYSTEM":"UTC","SITE":"AFWTR","REV_AT_EPOCH":"130","MEAN_ELEMENT_THEORY":"SGP4","CENTER_NAME":"EARTH","OBJECT_TYPE":"PAYLOAD"},{"PERIAPSIS":"538.406","PERIOD":"95.437","TLE_LINE2":"2 51813  53.2160 151.7644 0001924  60.8067 172.5274 15.08842609  1303","INCLINATION":"53.2160","MEAN_MOTION":"15.08842609","EPOCH":"2022-07-24T22:00:00.999936","LAUNCH_DATE":"2022-02-25","BSTAR":"-0.00010903000000","GP_ID":"208800941","TLE_LINE1":"1 51813U 22017AX  22205.91667824 -.00002023  00000-0 -10903-3 0  9999","SEMIMAJOR_AXIS":"6917.872","MEAN_ELEMENT_THEORY":"SGP4","OBJECT_TYPE":"PAYLOAD","CENTER_NAME":"EARTH","SITE":"AFWTR","REV_AT_EPOCH":"130","TIME_SYSTEM":"UTC","FILE":"3521124","MEAN_MOTION_DDOT":"0.0000000000000","OBJECT_NAME":"STARLINK-3552","APOAPSIS":"541.068","COUNTRY_CODE":"US","ECCENTRICITY":"0.00019240","NORAD_CAT_ID":"51813","EPHEMERIS_TYPE":"0","RA_OF_ASC_NODE":"151.7644","CLASSIFICATION_TYPE":"U","ELEMENT_SET_NO":"999","OBJECT_ID":"2022-017AX","MEAN_ANOMALY":"172.5274","MEAN_MOTION_DOT":"-0.00002023","REF_FRAME":"TEME","RCS_SIZE":"LARGE","ARG_OF_PERICENTER":"60.8067","DECAY_DATE":null},{"MEAN_MOTION_DOT":"-0.00004984","MEAN_ANOMALY":"71.6092","RCS_SIZE":"LARGE","REF_FRAME":"TEME","ARG_OF_PERICENTER":"86.9418","DECAY_DATE":null,"EPHEMERIS_TYPE":"0","RA_OF_ASC_NODE":"151.7535","ELEMENT_SET_NO":"999","CLASSIFICATION_TYPE":"U","OBJECT_ID":"2022-017AY","NORAD_CAT_ID":"51814","ECCENTRICITY":"0.00014860","OBJECT_NAME":"STARLINK-3599","APOAPSIS":"540.800","COUNTRY_CODE":"US","TIME_SYSTEM":"UTC","FILE":"3521003","MEAN_MOTION_DDOT":"0.0000000000000","MEAN_ELEMENT_THEORY":"SGP4","OBJECT_TYPE":"PAYLOAD","CENTER_NAME":"EARTH","SITE":"AFWTR","REV_AT_EPOCH":"2436","EPOCH":"2022-07-24T22:00:00.999936","BSTAR":"-0.00029534000000","LAUNCH_DATE":"2022-02-25","GP_ID":"208774419","SEMIMAJOR_AXIS":"6917.907","TLE_LINE1":"1 51814U 22017AY  22205.91667824 -.00004984  00000-0 -29534-3 0  9998","PERIAPSIS":"538.744","TLE_LINE2":"2 51814  53.2174 151.7535 0001486  86.9418  71.6092 15.08831432 24360","PERIOD":"95.438","INCLINATION":"53.2174","MEAN_MOTION":"15.08831432"},{"OBJECT_ID":"2022-017AZ","ELEMENT_SET_NO":"999","CLASSIFICATION_TYPE":"U","RA_OF_ASC_NODE":"151.7550","EPHEMERIS_TYPE":"0","DECAY_DATE":null,"ARG_OF_PERICENTER":"90.4647","RCS_SIZE":"LARGE","REF_FRAME":"TEME","MEAN_MOTION_DOT":"-0.00005908","MEAN_ANOMALY":"48.0802","COUNTRY_CODE":"US","APOAPSIS":"540.731","OBJECT_NAME":"STARLINK-3604","NORAD_CAT_ID":"51815","ECCENTRICITY":"0.00014520","REV_AT_EPOCH":"130","SITE":"AFWTR","CENTER_NAME":"EARTH","OBJECT_TYPE":"PAYLOAD","MEAN_ELEMENT_THEORY":"SGP4","MEAN_MOTION_DDOT":"0.0000000000000","FILE":"3521124","TIME_SYSTEM":"UTC","MEAN_MOTION":"15.08846320","INCLINATION":"53.2177","TLE_LINE2":"2 51815  53.2177 151.7550 0001452  90.4647  48.0802 15.08846320  1306","PERIOD":"95.437","PERIAPSIS":"538.722","SEMIMAJOR_AXIS":"6917.861","TLE_LINE1":"1 51815U 22017AZ  22205.91667824 -.00005908  00000-0 -35333-3 0  9990","GP_ID":"208800446","BSTAR":"-0.00035333000000","LAUNCH_DATE":"2022-02-25","EPOCH":"2022-07-24T22:00:00.999936"},{"TIME_SYSTEM":"UTC","MEAN_MOTION_DDOT":"0.0000000000000","FILE":"3521124","OBJECT_TYPE":"PAYLOAD","CENTER_NAME":"EARTH","MEAN_ELEMENT_THEORY":"SGP4","REV_AT_EPOCH":"130","SITE":"AFWTR","BSTAR":"-0.00022318000000","LAUNCH_DATE":"2022-02-25","EPOCH":"2022-07-24T22:00:00.999936","TLE_LINE1":"1 51816U 22017BA  22205.91667824 -.00003837  00000-0 -22318-3 0  9999","SEMIMAJOR_AXIS":"6917.900","GP_ID":"208800698","PERIAPSIS":"538.935","INCLINATION":"53.2176","MEAN_MOTION":"15.08833721","TLE_LINE2":"2 51816  53.2176 151.7545 0001199  97.0408  81.5365 15.08833721  1303","PERIOD":"95.438","RCS_SIZE":"LARGE","REF_FRAME":"TEME","MEAN_MOTION_DOT":"-0.00003837","MEAN_ANOMALY":"81.5365","DECAY_DATE":null,"ARG_OF_PERICENTER":"97.0408","RA_OF_ASC_NODE":"151.7545","EPHEMERIS_TYPE":"0","OBJECT_ID":"2022-017BA","ELEMENT_SET_NO":"999","CLASSIFICATION_TYPE":"U","NORAD_CAT_ID":"51816","ECCENTRICITY":"0.00011990","OBJECT_NAME":"STARLINK-3603","COUNTRY_CODE":"US","APOAPSIS":"540.594"},{"ECCENTRICITY":"0.00077980","NORAD_CAT_ID":"51817","OBJECT_NAME":"STARLINK-3596","APOAPSIS":"345.014","COUNTRY_CODE":"US","MEAN_ANOMALY":"83.7955","MEAN_MOTION_DOT":"-0.00006235","REF_FRAME":"TEME","RCS_SIZE":"LARGE","ARG_OF_PERICENTER":"276.2178","DECAY_DATE":null,"EPHEMERIS_TYPE":"0","RA_OF_ASC_NODE":"119.2328","CLASSIFICATION_TYPE":"U","ELEMENT_SET_NO":"999","OBJECT_ID":"2022-017BB","EPOCH":"2022-07-24T18:23:20.984640","LAUNCH_DATE":"2022-02-25","BSTAR":"-0.00003400900000","GP_ID":"208801441","TLE_LINE1":"1 51817U 22017BB  22205.76621510 -.00006235  00000-0 -34009-4 0  9991","SEMIMAJOR_AXIS":"6717.911","PERIAPSIS":"334.537","PERIOD":"91.329","TLE_LINE2":"2 51817  53.2103 119.2328 0007798 276.2178  83.7955 15.76708569 24780","INCLINATION":"53.2103","MEAN_MOTION":"15.76708569","TIME_SYSTEM":"UTC","FILE":"3521124","MEAN_MOTION_DDOT":"0.0000000000000","MEAN_ELEMENT_THEORY":"SGP4","CENTER_NAME":"EARTH","OBJECT_TYPE":"PAYLOAD","SITE":"AFWTR","REV_AT_EPOCH":"2478"},{"TLE_LINE1":"1 51852U 22022A   22205.91667824  .00042440  00000-0  26705-2 0  9999","SEMIMAJOR_AXIS":"6917.959","GP_ID":"208800450","LAUNCH_DATE":"2022-03-03","BSTAR":"0.00267050000000","EPOCH":"2022-07-24T22:00:00.999936","INCLINATION":"53.2133","MEAN_MOTION":"15.08814336","PERIOD":"95.439","TLE_LINE2":"2 51852  53.2133 201.7666 0002168  48.1739 335.3905 15.08814336  1308","PERIAPSIS":"538.324","MEAN_MOTION_DDOT":"0.0000000000000","FILE":"3521124","TIME_SYSTEM":"UTC","REV_AT_EPOCH":"130","SITE":"AFETR","CENTER_NAME":"EARTH","OBJECT_TYPE":"PAYLOAD","MEAN_ELEMENT_THEORY":"SGP4","ECCENTRICITY":"0.00021680","NORAD_CAT_ID":"51852","COUNTRY_CODE":"US","APOAPSIS":"541.324","OBJECT_NAME":"STARLINK-3542","DECAY_DATE":null,"ARG_OF_PERICENTER":"48.1739","REF_FRAME":"TEME","RCS_SIZE":"LARGE","MEAN_ANOMALY":"335.3905","MEAN_MOTION_DOT":"0.00042440","OBJECT_ID":"2022-022A","CLASSIFICATION_TYPE":"U","ELEMENT_SET_NO":"999","RA_OF_ASC_NODE":"201.7666","EPHEMERIS_TYPE":"0"},{"MEAN_ELEMENT_THEORY":"SGP4","CENTER_NAME":"EARTH","OBJECT_TYPE":"PAYLOAD","SITE":"AFETR","REV_AT_EPOCH":"130","TIME_SYSTEM":"UTC","FILE":"3521124","MEAN_MOTION_DDOT":"0.0000000000000","PERIAPSIS":"537.891","TLE_LINE2":"2 51853  53.2137 201.7689 0002710  43.4828 320.0624 15.08833386  1303","PERIOD":"95.438","INCLINATION":"53.2137","MEAN_MOTION":"15.08833386","EPOCH":"2022-07-24T22:00:00.999936","BSTAR":"0.00192070000000","LAUNCH_DATE":"2022-03-03","GP_ID":"208800702","TLE_LINE1":"1 51853U 22022B   22205.91667824  .00030408  00000-0  19207-2 0  9990","SEMIMAJOR_AXIS":"6917.901","EPHEMERIS_TYPE":"0","RA_OF_ASC_NODE":"201.7689","ELEMENT_SET_NO":"999","CLASSIFICATION_TYPE":"U","OBJECT_ID":"2022-022B","MEAN_MOTION_DOT":"0.00030408","MEAN_ANOMALY":"320.0624","RCS_SIZE":"LARGE","REF_FRAME":"TEME","ARG_OF_PERICENTER":"43.4828","DECAY_DATE":null,"OBJECT_NAME":"STARLINK-3539","APOAPSIS":"541.640","COUNTRY_CODE":"US","NORAD_CAT_ID":"51853","ECCENTRICITY":"0.00027100"},{"INCLINATION":"53.2133","MEAN_MOTION":"15.08840437","TLE_LINE2":"2 51854  53.2133 201.7637 0002173  49.8731 353.7100 15.08840437  1306","PERIOD":"95.438","PERIAPSIS":"538.241","SEMIMAJOR_AXIS":"6917.879","TLE_LINE1":"1 51854U 22022C   22205.91667824 -.00000664  00000-0 -23608-4 0  9996","GP_ID":"208801445","BSTAR":"-0.00002360800000","LAUNCH_DATE":"2022-03-03","EPOCH":"2022-07-24T22:00:00.999936","REV_AT_EPOCH":"130","SITE":"AFETR","CENTER_NAME":"EARTH","OBJECT_TYPE":"PAYLOAD","MEAN_ELEMENT_THEORY":"SGP4","MEAN_MOTION_DDOT":"0.0000000000000","FILE":"3521124","TIME_SYSTEM":"UTC","COUNTRY_CODE":"US","APOAPSIS":"541.247","OBJECT_NAME":"STARLINK-3541","NORAD_CAT_ID":"51854","ECCENTRICITY":"0.00021730","OBJECT_ID":"2022-022C","ELEMENT_SET_NO":"999","CLASSIFICATION_TYPE":"U","RA_OF_ASC_NODE":"201.7637","EPHEMERIS_TYPE":"0","DECAY_DATE":null,"ARG_OF_PERICENTER":"49.8731","RCS_SIZE":"LARGE","REF_FRAME":"TEME","MEAN_MOTION_DOT":"-0.00000664","MEAN_ANOMALY":"353.7100"}];
